STARLINK-36524          
1 67452U 26008H   26041.58336806 -.01932582  00000+0 -36225-1 0  9992
2 67452  43.0004 359.2744 0001428 266.0415 163.4759 15.50962944  5443
STARLINK-36518          
1 67453U 26008J   26041.58336806 -.02088755  00000+0 -48780-1 0  9997
2 67453  43.0005 358.8037 0001014 258.9732 356.3513 15.44999275  5461
STARLINK-36517          
1 67454U 26008K   26041.26455666  .00096305  00000+0  16263-2 0  9997
2 67454  42.9995   1.3569 0001367 251.4058 108.6654 15.50596615  5369
STARLINK-36516          
1 67455U 26008L   26041.25455741  .00088577  00000+0  14982-2 0  9999
2 67455  42.9996   1.2765 0001449 267.3325  92.7369 15.50586425  5366
STARLINK-36493          
1 67456U 26008M   26041.58336806  .00096169  00000+0  16294-2 0  9990
2 67456  43.0005 359.3211 0001403 270.6880 140.0464 15.50503454  5449
STARLINK-36529          
1 67457U 26008N   26041.58336806 -.00931540  00000+0 -17087-1 0  9994
2 67457  43.0004 359.0624 0000969 254.6698 260.5824 15.50901093  5448
STARLINK-36528          
1 67458U 26008P   26041.58336806 -.00107696  00000+0 -18528-2 0  9994
2 67458  43.0004 358.7376 0001450 260.9291  26.3557 15.50616110  5460
STARLINK-36546          
1 67459U 26008Q   26041.58336806 -.02104410  00000+0 -45543-1 0  9994
2 67459  43.0005 359.0574 0001195 273.4880 244.0054 15.47211946  5448
STARLINK-36523          
1 67460U 26008R   26041.58336806 -.02120582  00000+0 -44100-1 0  9992
2 67460  43.0001 359.0148 0001307 256.3798 277.9661 15.48369413  5461
STARLINK-36522          
1 67461U 26008S   26041.25184610  .00100083  00000+0  16895-2 0  9992
2 67461  42.9996   1.2551 0001170 285.9284  74.1447 15.50588229  5362
STARLINK-36504          
1 67462U 26008T   26041.58336806 -.02110143  00000+0 -41911-1 0  9993
2 67462  43.0002 358.8207 0001134 249.7144   3.5345 15.49646848  5469
STARLINK-36505          
1 67463U 26008U   26041.58336806 -.00127721  00000+0 -22023-2 0  9996
2 67463  43.0004 358.9180 0001497 270.3891 303.5578 15.50637735  5440
