CCSDS_OMM_VERS = 2.0
CREATION_DATE  = 
ORIGINATOR     = 

OBJECT_NAME    = STARLINK-36524
OBJECT_ID      = 2026-008H
CENTER_NAME    = EARTH
REF_FRAME      = TEME
TIME_SYSTEM    = UTC
MEAN_ELEMENT_THEORY = SGP/SGP4

EPOCH          = 2026-02-10T14:00:03.000384
MEAN_MOTION    = 15.50962944
ECCENTRICITY   = .00014282
INCLINATION    = 43.0004
RA_OF_ASC_NODE = 359.2744
ARG_OF_PERICENTER = 266.0415
MEAN_ANOMALY   = 163.4759

EPHEMERIS_TYPE = 0
CLASSIFICATION_TYPE = U
NORAD_CAT_ID   = 67452
ELEMENT_SET_NO = 999
REV_AT_EPOCH   = 544
BSTAR          = -.36225482E-1
MEAN_MOTION_DOT = -.1932582E-1
MEAN_MOTION_DDOT = 0

CCSDS_OMM_VERS = 2.0
CREATION_DATE  = 
ORIGINATOR     = 

OBJECT_NAME    = STARLINK-36518
OBJECT_ID      = 2026-008J
CENTER_NAME    = EARTH
REF_FRAME      = TEME
TIME_SYSTEM    = UTC
MEAN_ELEMENT_THEORY = SGP/SGP4

EPOCH          = 2026-02-10T14:00:03.000384
MEAN_MOTION    = 15.44999275
ECCENTRICITY   = .00010146
INCLINATION    = 43.0005
RA_OF_ASC_NODE = 358.8037
ARG_OF_PERICENTER = 258.9732
MEAN_ANOMALY   = 356.3513

EPHEMERIS_TYPE = 0
CLASSIFICATION_TYPE = U
NORAD_CAT_ID   = 67453
ELEMENT_SET_NO = 999
REV_AT_EPOCH   = 546
BSTAR          = -.48779653E-1
MEAN_MOTION_DOT = -.2088755E-1
MEAN_MOTION_DDOT = 0

CCSDS_OMM_VERS = 2.0
CREATION_DATE  = 
ORIGINATOR     = 

OBJECT_NAME    = STARLINK-36517
OBJECT_ID      = 2026-008K
CENTER_NAME    = EARTH
REF_FRAME      = TEME
TIME_SYSTEM    = UTC
MEAN_ELEMENT_THEORY = SGP/SGP4

EPOCH          = 2026-02-10T06:20:57.695424
MEAN_MOTION    = 15.50596615
ECCENTRICITY   = .0001367
INCLINATION    = 42.9995
RA_OF_ASC_NODE = 1.3569
ARG_OF_PERICENTER = 251.4058
MEAN_ANOMALY   = 108.6654

EPHEMERIS_TYPE = 0
CLASSIFICATION_TYPE = U
NORAD_CAT_ID   = 67454
ELEMENT_SET_NO = 999
REV_AT_EPOCH   = 536
BSTAR          = .16263E-2
MEAN_MOTION_DOT = .96305E-3
MEAN_MOTION_DDOT = 0

CCSDS_OMM_VERS = 2.0
CREATION_DATE  = 
ORIGINATOR     = 

OBJECT_NAME    = STARLINK-36516
OBJECT_ID      = 2026-008L
CENTER_NAME    = EARTH
REF_FRAME      = TEME
TIME_SYSTEM    = UTC
MEAN_ELEMENT_THEORY = SGP/SGP4

EPOCH          = 2026-02-10T06:06:33.760224
MEAN_MOTION    = 15.50586425
ECCENTRICITY   = .0001449
INCLINATION    = 42.9996
RA_OF_ASC_NODE = 1.2765
ARG_OF_PERICENTER = 267.3325
MEAN_ANOMALY   = 92.7369

EPHEMERIS_TYPE = 0
CLASSIFICATION_TYPE = U
NORAD_CAT_ID   = 67455
ELEMENT_SET_NO = 999
REV_AT_EPOCH   = 536
BSTAR          = .14982E-2
MEAN_MOTION_DOT = .88577E-3
MEAN_MOTION_DDOT = 0

CCSDS_OMM_VERS = 2.0
CREATION_DATE  = 
ORIGINATOR     = 

OBJECT_NAME    = STARLINK-36493
OBJECT_ID      = 2026-008M
CENTER_NAME    = EARTH
REF_FRAME      = TEME
TIME_SYSTEM    = UTC
MEAN_ELEMENT_THEORY = SGP/SGP4

EPOCH          = 2026-02-10T14:00:03.000384
MEAN_MOTION    = 15.50503454
ECCENTRICITY   = .00014033
INCLINATION    = 43.0005
RA_OF_ASC_NODE = 359.3211
ARG_OF_PERICENTER = 270.6880
MEAN_ANOMALY   = 140.0464

EPHEMERIS_TYPE = 0
CLASSIFICATION_TYPE = U
NORAD_CAT_ID   = 67456
ELEMENT_SET_NO = 999
REV_AT_EPOCH   = 544
BSTAR          = .16293896E-2
MEAN_MOTION_DOT = .96169E-3
MEAN_MOTION_DDOT = 0

CCSDS_OMM_VERS = 2.0
CREATION_DATE  = 
ORIGINATOR     = 

OBJECT_NAME    = STARLINK-36529
OBJECT_ID      = 2026-008N
CENTER_NAME    = EARTH
REF_FRAME      = TEME
TIME_SYSTEM    = UTC
MEAN_ELEMENT_THEORY = SGP/SGP4

EPOCH          = 2026-02-10T14:00:03.000384
MEAN_MOTION    = 15.50901093
ECCENTRICITY   = .00009696
INCLINATION    = 43.0004
RA_OF_ASC_NODE = 359.0624
ARG_OF_PERICENTER = 254.6698
MEAN_ANOMALY   = 260.5824

EPHEMERIS_TYPE = 0
CLASSIFICATION_TYPE = U
NORAD_CAT_ID   = 67457
ELEMENT_SET_NO = 999
REV_AT_EPOCH   = 544
BSTAR          = -.17086636E-1
MEAN_MOTION_DOT = -.93154E-2
MEAN_MOTION_DDOT = 0

CCSDS_OMM_VERS = 2.0
CREATION_DATE  = 
ORIGINATOR     = 

OBJECT_NAME    = STARLINK-36528
OBJECT_ID      = 2026-008P
CENTER_NAME    = EARTH
REF_FRAME      = TEME
TIME_SYSTEM    = UTC
MEAN_ELEMENT_THEORY = SGP/SGP4

EPOCH          = 2026-02-10T14:00:03.000384
MEAN_MOTION    = 15.50616110
ECCENTRICITY   = .00014506
INCLINATION    = 43.0004
RA_OF_ASC_NODE = 358.7376
ARG_OF_PERICENTER = 260.9291
MEAN_ANOMALY   = 26.3557

EPHEMERIS_TYPE = 0
CLASSIFICATION_TYPE = U
NORAD_CAT_ID   = 67458
ELEMENT_SET_NO = 999
REV_AT_EPOCH   = 546
BSTAR          = -.18527856E-2
MEAN_MOTION_DOT = -.107696E-2
MEAN_MOTION_DDOT = 0

CCSDS_OMM_VERS = 2.0
CREATION_DATE  = 
ORIGINATOR     = 

OBJECT_NAME    = STARLINK-36546
OBJECT_ID      = 2026-008Q
CENTER_NAME    = EARTH
REF_FRAME      = TEME
TIME_SYSTEM    = UTC
MEAN_ELEMENT_THEORY = SGP/SGP4

EPOCH          = 2026-02-10T14:00:03.000384
MEAN_MOTION    = 15.47211946
ECCENTRICITY   = .00011953
INCLINATION    = 43.0005
RA_OF_ASC_NODE = 359.0574
ARG_OF_PERICENTER = 273.4880
MEAN_ANOMALY   = 244.0054

EPHEMERIS_TYPE = 0
CLASSIFICATION_TYPE = U
NORAD_CAT_ID   = 67459
ELEMENT_SET_NO = 999
REV_AT_EPOCH   = 544
BSTAR          = -.45542831E-1
MEAN_MOTION_DOT = -.210441E-1
MEAN_MOTION_DDOT = 0

CCSDS_OMM_VERS = 2.0
CREATION_DATE  = 
ORIGINATOR     = 

OBJECT_NAME    = STARLINK-36523
OBJECT_ID      = 2026-008R
CENTER_NAME    = EARTH
REF_FRAME      = TEME
TIME_SYSTEM    = UTC
MEAN_ELEMENT_THEORY = SGP/SGP4

EPOCH          = 2026-02-10T14:00:03.000384
MEAN_MOTION    = 15.48369413
ECCENTRICITY   = .00013079
INCLINATION    = 43.0001
RA_OF_ASC_NODE = 359.0148
ARG_OF_PERICENTER = 256.3798
MEAN_ANOMALY   = 277.9661

EPHEMERIS_TYPE = 0
CLASSIFICATION_TYPE = U
NORAD_CAT_ID   = 67460
ELEMENT_SET_NO = 999
REV_AT_EPOCH   = 546
BSTAR          = -.44100425E-1
MEAN_MOTION_DOT = -.2120582E-1
MEAN_MOTION_DDOT = 0

CCSDS_OMM_VERS = 2.0
CREATION_DATE  = 
ORIGINATOR     = 

OBJECT_NAME    = STARLINK-36522
OBJECT_ID      = 2026-008S
CENTER_NAME    = EARTH
REF_FRAME      = TEME
TIME_SYSTEM    = UTC
MEAN_ELEMENT_THEORY = SGP/SGP4

EPOCH          = 2026-02-10T06:02:39.503040
MEAN_MOTION    = 15.50588229
ECCENTRICITY   = .000117
INCLINATION    = 42.9996
RA_OF_ASC_NODE = 1.2551
ARG_OF_PERICENTER = 285.9284
MEAN_ANOMALY   = 74.1447

EPHEMERIS_TYPE = 0
CLASSIFICATION_TYPE = U
NORAD_CAT_ID   = 67461
ELEMENT_SET_NO = 999
REV_AT_EPOCH   = 536
BSTAR          = .16895E-2
MEAN_MOTION_DOT = .100083E-2
MEAN_MOTION_DDOT = 0

CCSDS_OMM_VERS = 2.0
CREATION_DATE  = 
ORIGINATOR     = 

OBJECT_NAME    = STARLINK-36504
OBJECT_ID      = 2026-008T
CENTER_NAME    = EARTH
REF_FRAME      = TEME
TIME_SYSTEM    = UTC
MEAN_ELEMENT_THEORY = SGP/SGP4

EPOCH          = 2026-02-10T14:00:03.000384
MEAN_MOTION    = 15.49646848
ECCENTRICITY   = .00011343
INCLINATION    = 43.0002
RA_OF_ASC_NODE = 358.8207
ARG_OF_PERICENTER = 249.7144
MEAN_ANOMALY   = 3.5345

EPHEMERIS_TYPE = 0
CLASSIFICATION_TYPE = U
NORAD_CAT_ID   = 67462
ELEMENT_SET_NO = 999
REV_AT_EPOCH   = 546
BSTAR          = -.41910953E-1
MEAN_MOTION_DOT = -.2110143E-1
MEAN_MOTION_DDOT = 0

CCSDS_OMM_VERS = 2.0
CREATION_DATE  = 
ORIGINATOR     = 

OBJECT_NAME    = STARLINK-36505
OBJECT_ID      = 2026-008U
CENTER_NAME    = EARTH
REF_FRAME      = TEME
TIME_SYSTEM    = UTC
MEAN_ELEMENT_THEORY = SGP/SGP4

EPOCH          = 2026-02-10T14:00:03.000384
MEAN_MOTION    = 15.50637735
ECCENTRICITY   = .00014971
INCLINATION    = 43.0004
RA_OF_ASC_NODE = 358.9180
ARG_OF_PERICENTER = 270.3891
MEAN_ANOMALY   = 303.5578

EPHEMERIS_TYPE = 0
CLASSIFICATION_TYPE = U
NORAD_CAT_ID   = 67463
ELEMENT_SET_NO = 999
REV_AT_EPOCH   = 544
BSTAR          = -.22022839E-2
MEAN_MOTION_DOT = -.127721E-2
MEAN_MOTION_DDOT = 0

